{"type": "FeatureCollection", "features": [ {"type": "Feature", "properties": {"norad_id": 30160, "name": "FENGYUN 1C DEB", "group": "fengyun-1c-debris", "lat": -60.858317126686906, "lon": 93.41380911339799, "alt_km": 1133.768204100902, "timestamp": "2025-12-06T09:34:17.188119+00:00", "meta": {"OBJECT_NAME": "FENGYUN 1C DEB", "OBJECT_ID": "1999-025TR", "EPOCH": "2025-12-05T20:10:26.022144", "MEAN_MOTION": 13.42878119, "ECCENTRICITY": 0.03424332, "INCLINATION": 98.8855, "RA_OF_ASC_NODE": 289.2148, "ARG_OF_PERICENTER": 145.2366, "MEAN_ANOMALY": 275.6578, "EPHEMERIS_TYPE": 0, "CLASSIFICATION_TYPE": "U", "NORAD_CAT_ID": 30160, "ELEMENT_SET_NO": 999, "REV_AT_EPOCH": 92321, "BSTAR": 0.0011960658, "MEAN_MOTION_DOT": 9.3e-06, "MEAN_MOTION_DDOT": 0}, "tle": {"line1": "1 30160U 99025TR  25339.84057896  .00000930  00000+0  11961-2 0  9995", "line2": "2 30160  98.8855 289.2148 0342433 145.2366 275.6578 13.42878119923216"}}, "geometry": {"type": "Point", "coordinates": [93.41380911339799, -60.858317126686906]}}, {"type": "Feature", "properties": {"norad_id": 30161, "name": "FENGYUN 1C DEB", "group": "fengyun-1c-debris", "lat": 0.6528028001543827, "lon": -32.67521420506374, "alt_km": 1057.7019281507382, "timestamp": "2025-12-06T09:34:17.188130+00:00", "meta": {"OBJECT_NAME": "FENGYUN 1C DEB", "OBJECT_ID": "1999-025TS", "EPOCH": "2025-12-05T21:27:17.196192", "MEAN_MOTION": 13.49686514, "ECCENTRICITY": 0.03286818, "INCLINATION": 100.5043, "RA_OF_ASC_NODE": 326.9134, "ARG_OF_PERICENTER": 274.4171, "MEAN_ANOMALY": 150.7637, "EPHEMERIS_TYPE": 0, "CLASSIFICATION_TYPE": "U", "NORAD_CAT_ID": 30161, "ELEMENT_SET_NO": 999, "REV_AT_EPOCH": 92467, "BSTAR": 0.0033348109, "MEAN_MOTION_DOT": 2.899e-05, "MEAN_MOTION_DDOT": 0}, "tle": {"line1": "1 30161U 99025TS  25339.89394903  .00002899  00000+0  33348-2 0  9993", "line2": "2 30161 100.5043 326.9134 0328681 274.4171 150.7637 13.49686514924672"}}, "geometry": {"type": "Point", "coordinates": [-32.67521420506374, 0.6528028001543827]}}, {"type": "Feature", "properties": {"norad_id": 30162, "name": "FENGYUN 1C DEB", "group": "fengyun-1c-debris", "lat": 74.31860789285525, "lon": 0.15973120064131102, "alt_km": 973.3503828712237, "timestamp": "2025-12-06T09:34:17.188147+00:00", "meta": {"OBJECT_NAME": "FENGYUN 1C DEB", "OBJECT_ID": "1999-025TT", "EPOCH": "2025-12-05T21:40:27.623136", "MEAN_MOTION": 13.53355701, "ECCENTRICITY": 0.03136732, "INCLINATION": 99.4888, "RA_OF_ASC_NODE": 36.2483, "ARG_OF_PERICENTER": 6.9333, "MEAN_ANOMALY": 173.2559, "EPHEMERIS_TYPE": 0, "CLASSIFICATION_TYPE": "U", "NORAD_CAT_ID": 30162, "ELEMENT_SET_NO": 999, "REV_AT_EPOCH": 92568, "BSTAR": 0.0037576197, "MEAN_MOTION_DOT": 3.401e-05, "MEAN_MOTION_DDOT": 0}, "tle": {"line1": "1 30162U 99025TT  25339.90309749  .00003401  00000+0  37576-2 0  9997", "line2": "2 30162  99.4888  36.2483 0313673   6.9333 173.2559 13.53355701925688"}}, "geometry": {"type": "Point", "coordinates": [0.15973120064131102, 74.31860789285525]}}, {"type": "Feature", "properties": {"norad_id": 30163, "name": "FENGYUN 1C DEB", "group": "fengyun-1c-debris", "lat": 59.29295011750763, "lon": 81.4367489627022, "alt_km": 1384.8032004992374, "timestamp": "2025-12-06T09:34:17.188157+00:00", "meta": {"OBJECT_NAME": "FENGYUN 1C DEB", "OBJECT_ID": "1999-025TU", "EPOCH": "2025-12-05T21:19:16.180608", "MEAN_MOTION": 13.38746072, "ECCENTRICITY": 0.03730424, "INCLINATION": 98.7012, "RA_OF_ASC_NODE": 95.9397, "ARG_OF_PERICENTER": 249.6841, "MEAN_ANOMALY": 231.4783, "EPHEMERIS_TYPE": 0, "CLASSIFICATION_TYPE": "U", "NORAD_CAT_ID": 30163, "ELEMENT_SET_NO": 999, "REV_AT_EPOCH": 91853, "BSTAR": 0.003196905, "MEAN_MOTION_DOT": 2.518e-05, "MEAN_MOTION_DDOT": 0}, "tle": {"line1": "1 30163U 99025TU  25339.88838172  .00002518  00000+0  31969-2 0  9990", "line2": "2 30163  98.7012  95.9397 0373042 249.6841 231.4783 13.38746072918532"}}, "geometry": {"type": "Point", "coordinates": [81.4367489627022, 59.29295011750763]}}, {"type": "Feature", "properties": {"norad_id": 30167, "name": "FENGYUN 1C DEB", "group": "fengyun-1c-debris", "lat": 24.106751377540096, "lon": 61.12674225495092, "alt_km": 817.1977795998109, "timestamp": "2025-12-06T09:34:17.188168+00:00", "meta": {"OBJECT_NAME": "FENGYUN 1C DEB", "OBJECT_ID": "1999-025TY", "EPOCH": "2025-12-05T19:05:19.891104", "MEAN_MOTION": 14.48489673, "ECCENTRICITY": 0.0143993, "INCLINATION": 98.9688, "RA_OF_ASC_NODE": 64.5385, "ARG_OF_PERICENTER": 175.2286, "MEAN_ANOMALY": 305.2799, "EPHEMERIS_TYPE": 0, "CLASSIFICATION_TYPE": "U", "NORAD_CAT_ID": 30167, "ELEMENT_SET_NO": 999, "REV_AT_EPOCH": 99258, "BSTAR": 0.0011416542, "MEAN_MOTION_DOT": 4.831e-05, "MEAN_MOTION_DDOT": 0}, "tle": {"line1": "1 30167U 99025TY  25339.79536911  .00004831  00000+0  11417-2 0  9996", "line2": "2 30167  98.9688  64.5385 0143993 175.2286 305.2799 14.48489673992580"}}, "geometry": {"type": "Point", "coordinates": [61.12674225495092, 24.106751377540096]}}, {"type": "Feature", "properties": {"norad_id": 30168, "name": "FENGYUN 1C DEB", "group": "fengyun-1c-debris", "lat": -1.1894780473935882, "lon": 53.673160727557615, "alt_km": 791.2534275352346, "timestamp": "2025-12-06T09:34:17.188178+00:00", "meta": {"OBJECT_NAME": "FENGYUN 1C DEB", "OBJECT_ID": "1999-025TZ", "EPOCH": "2025-12-05T03:49:14.227680", "MEAN_MOTION": 14.52652544, "ECCENTRICITY": 0.01008979, "INCLINATION": 97.3919, "RA_OF_ASC_NODE": 52.4257, "ARG_OF_PERICENTER": 177.6487, "MEAN_ANOMALY": 182.5207, "EPHEMERIS_TYPE": 0, "CLASSIFICATION_TYPE": "U", "NORAD_CAT_ID": 30168, "ELEMENT_SET_NO": 999, "REV_AT_EPOCH": 98201, "BSTAR": 0.0047636855, "MEAN_MOTION_DOT": 0.00020876, "MEAN_MOTION_DDOT": 0}, "tle": {"line1": "1 30168U 99025TZ  25339.15919245  .00020876  00000+0  47637-2 0  9992", "line2": "2 30168  97.3919  52.4257 0100897 177.6487 182.5207 14.52652544982011"}}, "geometry": {"type": "Point", "coordinates": [53.673160727557615, -1.1894780473935882]}}, {"type": "Feature", "properties": {"norad_id": 30169, "name": "FENGYUN 1C DEB", "group": "fengyun-1c-debris", "lat": 59.39369761938218, "lon": 35.4921131199952, "alt_km": 844.9261444286067, "timestamp": "2025-12-06T09:34:17.188188+00:00", "meta": {"OBJECT_NAME": "FENGYUN 1C DEB", "OBJECT_ID": "1999-025UA", "EPOCH": "2025-12-05T22:34:42.846816", "MEAN_MOTION": 14.57764893, "ECCENTRICITY": 0.02137337, "INCLINATION": 98.3369, "RA_OF_ASC_NODE": 49.3856, "ARG_OF_PERICENTER": 248.1385, "MEAN_ANOMALY": 289.7388, "EPHEMERIS_TYPE": 0, "CLASSIFICATION_TYPE": "U", "NORAD_CAT_ID": 30169, "ELEMENT_SET_NO": 999, "REV_AT_EPOCH": 97624, "BSTAR": 0.0037055994, "MEAN_MOTION_DOT": 0.00023227, "MEAN_MOTION_DDOT": 0}, "tle": {"line1": "1 30169U 99025UA  25339.94077369  .00023227  00000+0  37056-2 0  9999", "line2": "2 30169  98.3369  49.3856 0213733 248.1385 289.7388 14.57764893976241"}}, "geometry": {"type": "Point", "coordinates": [35.4921131199952, 59.39369761938218]}}, {"type": "Feature", "properties": {"norad_id": 30170, "name": "FENGYUN 1C DEB", "group": "fengyun-1c-debris", "lat": -56.83677412480684, "lon": -18.573971049772993, "alt_km": 844.6550622127361, "timestamp": "2025-12-06T09:34:17.188199+00:00", "meta": {"OBJECT_NAME": "FENGYUN 1C DEB", "OBJECT_ID": "1999-025UB", "EPOCH": "2025-12-05T10:26:27.748896", "MEAN_MOTION": 14.00291402, "ECCENTRICITY": 0.00768928, "INCLINATION": 98.848, "RA_OF_ASC_NODE": 326.7034, "ARG_OF_PERICENTER": 295.2722, "MEAN_ANOMALY": 191.0174, "EPHEMERIS_TYPE": 0, "CLASSIFICATION_TYPE": "U", "NORAD_CAT_ID": 30170, "ELEMENT_SET_NO": 999, "REV_AT_EPOCH": 96313, "BSTAR": 0.00082525934, "MEAN_MOTION_DOT": 1.209e-05, "MEAN_MOTION_DDOT": 0}, "tle": {"line1": "1 30170U 99025UB  25339.43504339  .00001209  00000+0  82526-3 0  9996", "line2": "2 30170  98.8480 326.7034 0076892 295.2722 191.0174 14.00291402963134"}}, "geometry": {"type": "Point", "coordinates": [-18.573971049772993, -56.83677412480684]}}, {"type": "Feature", "properties": {"norad_id": 30171, "name": "FENGYUN 1C DEB", "group": "fengyun-1c-debris", "lat": -60.421026143254416, "lon": 3.5566607865861037, "alt_km": 813.6211972487044, "timestamp": "2025-12-06T09:34:17.188209+00:00", "meta": {"OBJECT_NAME": "FENGYUN 1C DEB", "OBJECT_ID": "1999-025UC", "EPOCH": "2025-12-05T13:29:31.901856", "MEAN_MOTION": 13.96850815, "ECCENTRICITY": 0.01845885, "INCLINATION": 98.399, "RA_OF_ASC_NODE": 197.8794, "ARG_OF_PERICENTER": 287.6178, "MEAN_ANOMALY": 70.4903, "EPHEMERIS_TYPE": 0, "CLASSIFICATION_TYPE": "U", "NORAD_CAT_ID": 30171, "ELEMENT_SET_NO": 999, "REV_AT_EPOCH": 96170, "BSTAR": 0.00037769532, "MEAN_MOTION_DOT": 5.66e-06, "MEAN_MOTION_DDOT": 0}, "tle": {"line1": "1 30171U 99025UC  25339.56217479  .00000566  00000+0  37770-3 0  9993", "line2": "2 30171  98.3990 197.8794 0184588 287.6178  70.4903 13.96850815961702"}}, "geometry": {"type": "Point", "coordinates": [3.5566607865861037, -60.421026143254416]}}, {"type": "Feature", "properties": {"norad_id": 30172, "name": "FENGYUN 1C DEB", "group": "fengyun-1c-debris", "lat": -74.4003103288746, "lon": 103.64432974937458, "alt_km": 818.5408714891246, "timestamp": "2025-12-06T09:34:17.188219+00:00", "meta": {"OBJECT_NAME": "FENGYUN 1C DEB", "OBJECT_ID": "1999-025UD", "EPOCH": "2025-12-05T22:27:45.565056", "MEAN_MOTION": 14.12411959, "ECCENTRICITY": 0.00689278, "INCLINATION": 99.2335, "RA_OF_ASC_NODE": 318.8028, "ARG_OF_PERICENTER": 221.4968, "MEAN_ANOMALY": 203.1413, "EPHEMERIS_TYPE": 0, "CLASSIFICATION_TYPE": "U", "NORAD_CAT_ID": 30172, "ELEMENT_SET_NO": 999, "REV_AT_EPOCH": 96421, "BSTAR": 0.0022699633, "MEAN_MOTION_DOT": 4.237e-05, "MEAN_MOTION_DDOT": 0}, "tle": {"line1": "1 30172U 99025UD  25339.93594404  .00004237  00000+0  22700-2 0  9996", "line2": "2 30172  99.2335 318.8028 0068927 221.4968 203.1413 14.12411959964213"}}, "geometry": {"type": "Point", "coordinates": [103.64432974937458, -74.4003103288746]}}]}